[ {"CCSDS_OMM_VERS": "3.0", "COMMENT": "GENERATED VIA SPACE-TRACK.ORG API", "CREATION_DATE": "2020-02-26T22:26:13", "ORIGINATOR": "18 SPCS", "OBJECT_NAME": "OPS-SAT", "OBJECT_ID": "2019-092F", "CENTER_NAME": "EARTH", "REF_FRAME": "TEME", "TIME_SYSTEM": "UTC", "MEAN_ELEMENT_THEORY": "SGP4", "EPOCH": "2020-02-26T15:26:34.992384", "MEAN_MOTION": "15.15275269", "ECCENTRICITY": "0.00145540", "INCLINATION": "97.4638", "RA_OF_ASC_NODE": "242.8385", "ARG_OF_PERICENTER": "29.0407", "MEAN_ANOMALY": "331.1721", "EPHEMERIS_TYPE": "0", "CLASSIFICATION_TYPE": "U", "NORAD_CAT_ID": "44878", "ELEMENT_SET_NO": "999", "REV_AT_EPOCH": "1060", "BSTAR": "0.00000000000000", "MEAN_MOTION_DOT": "-0.00000066", "MEAN_MOTION_DDOT": "0.0000000000000", "SEMIMAJOR_AXIS": "6898.279", "PERIOD": "95.032", "APOAPSIS": "530.184", "PERIAPSIS": "510.105", "OBJECT_TYPE": "PAYLOAD", "RCS_SIZE": "SMALL", "COUNTRY_CODE": "ESA", "LAUNCH_DATE": "2019-12-18", "SITE": "FRGUI", "DECAY_DATE": null, "FILE": "2710119", "GP_ID": "149556999", "TLE_LINE0": "0 OPS-SAT", "TLE_LINE1": "1 44878U 19092F   20057.64346056 -.00000066  00000-0  00000+0 0  9992", "TLE_LINE2": "2 44878  97.4638 242.8385 0014554  29.0407 331.1721 15.15275269 10601"}, {"CCSDS_OMM_VERS": "3.0", "COMMENT": "GENERATED VIA SPACE-TRACK.ORG API", "CREATION_DATE": "2020-02-27T19:33:02", "ORIGINATOR": "18 SPCS", "OBJECT_NAME": "OPS-SAT", "OBJECT_ID": "2019-092F", "CENTER_NAME": "EARTH", "REF_FRAME": "TEME", "TIME_SYSTEM": "UTC", "MEAN_ELEMENT_THEORY": "SGP4", "EPOCH": "2020-02-26T23:22:02.601408", "MEAN_MOTION": "15.15275621", "ECCENTRICITY": "0.00145290", "INCLINATION": "97.4641", "RA_OF_ASC_NODE": "243.1633", "ARG_OF_PERICENTER": "28.6718", "MEAN_ANOMALY": "331.5351", "EPHEMERIS_TYPE": "0", "CLASSIFICATION_TYPE": "U", "NORAD_CAT_ID": "44878", "ELEMENT_SET_NO": "999", "REV_AT_EPOCH": "1065", "BSTAR": "0.00000000000000", "MEAN_MOTION_DOT": "-0.00000066", "MEAN_MOTION_DDOT": "0.0000000000000", "SEMIMAJOR_AXIS": "6898.278", "PERIOD": "95.032", "APOAPSIS": "530.166", "PERIAPSIS": "510.121", "OBJECT_TYPE": "PAYLOAD", "RCS_SIZE": "SMALL", "COUNTRY_CODE": "ESA", "LAUNCH_DATE": "2019-12-18", "SITE": "FRGUI", "DECAY_DATE": null, "FILE": "2710382", "GP_ID": "149582005", "TLE_LINE0": "0 OPS-SAT", "TLE_LINE1": "1 44878U 19092F   20057.97364122 -.00000066 +00000-0 +00000-0 0  9993", "TLE_LINE2": "2 44878 097.4641 243.1633 0014529 028.6718 331.5351 15.15275621010657"}, {"CCSDS_OMM_VERS": "3.0", "COMMENT": "GENERATED VIA SPACE-TRACK.ORG API", "CREATION_DATE": "2020-02-28T00:24:05", "ORIGINATOR": "18 SPCS", "OBJECT_NAME": "OPS-SAT", "OBJECT_ID": "2019-092F", "CENTER_NAME": "EARTH", "REF_FRAME": "TEME", "TIME_SYSTEM": "UTC", "MEAN_ELEMENT_THEORY": "SGP4", "EPOCH": "2020-02-27T15:12:57.790944", "MEAN_MOTION": "15.15277953", "ECCENTRICITY": "0.00147130", "INCLINATION": "97.4645", "RA_OF_ASC_NODE": "243.8112", "ARG_OF_PERICENTER": "26.7341", "MEAN_ANOMALY": "333.4708", "EPHEMERIS_TYPE": "0", "CLASSIFICATION_TYPE": "U", "NORAD_CAT_ID": "44878", "ELEMENT_SET_NO": "999", "REV_AT_EPOCH": "1075", "BSTAR": "0.00000000000000", "MEAN_MOTION_DOT": "-0.00000066", "MEAN_MOTION_DDOT": "0.0000000000000", "SEMIMAJOR_AXIS": "6898.271", "PERIOD": "95.032", "APOAPSIS": "530.286", "PERIAPSIS": "509.987", "OBJECT_TYPE": "PAYLOAD", "RCS_SIZE": "SMALL", "COUNTRY_CODE": "ESA", "LAUNCH_DATE": "2019-12-18", "SITE": "FRGUI", "DECAY_DATE": null, "FILE": "2710626", "GP_ID": "149627102", "TLE_LINE0": "0 OPS-SAT", "TLE_LINE1": "1 44878U 19092F   20058.63400221 -.00000066 +00000-0 +00000-0 0  9998", "TLE_LINE2": "2 44878 097.4645 243.8112 0014713 026.7341 333.4708 15.15277953010754"}, {"CCSDS_OMM_VERS": "3.0", "COMMENT": "GENERATED VIA SPACE-TRACK.ORG API", "CREATION_DATE": "2020-02-28T06:26:14", "ORIGINATOR": "18 SPCS", "OBJECT_NAME": "OPS-SAT", "OBJECT_ID": "2019-092F", "CENTER_NAME": "EARTH", "REF_FRAME": "TEME", "TIME_SYSTEM": "UTC", "MEAN_ELEMENT_THEORY": "SGP4", "EPOCH": "2020-02-28T00:43:30.931968", "MEAN_MOTION": "15.15278244", "ECCENTRICITY": "0.00145460", "INCLINATION": "97.4645", "RA_OF_ASC_NODE": "244.2003", "ARG_OF_PERICENTER": "25.0820", "MEAN_ANOMALY": "335.1170", "EPHEMERIS_TYPE": "0", "CLASSIFICATION_TYPE": "U", "NORAD_CAT_ID": "44878", "ELEMENT_SET_NO": "999", "REV_AT_EPOCH": "1081", "BSTAR": "0.00000000000000", "MEAN_MOTION_DOT": "-0.00000066", "MEAN_MOTION_DDOT": "0.0000000000000", "SEMIMAJOR_AXIS": "6898.270", "PERIOD": "95.032", "APOAPSIS": "530.170", "PERIAPSIS": "510.101", "OBJECT_TYPE": "PAYLOAD", "RCS_SIZE": "SMALL", "COUNTRY_CODE": "ESA", "LAUNCH_DATE": "2019-12-18", "SITE": "FRGUI", "DECAY_DATE": null, "FILE": "2710648", "GP_ID": "149647432", "TLE_LINE0": "0 OPS-SAT", "TLE_LINE1": "1 44878U 19092F   20059.03021912 -.00000066  00000-0  00000+0 0  9998", "TLE_LINE2": "2 44878  97.4645 244.2003 0014546  25.0820 335.1170 15.15278244 10819"}, {"CCSDS_OMM_VERS": "3.0", "COMMENT": "GENERATED VIA SPACE-TRACK.ORG API", "CREATION_DATE": "2020-02-28T22:15:45", "ORIGINATOR": "18 SPCS", "OBJECT_NAME": "OPS-SAT", "OBJECT_ID": "2019-092F", "CENTER_NAME": "EARTH", "REF_FRAME": "TEME", "TIME_SYSTEM": "UTC", "MEAN_ELEMENT_THEORY": "SGP4", "EPOCH": "2020-02-28T05:28:47.461440", "MEAN_MOTION": "15.15278912", "ECCENTRICITY": "0.00145130", "INCLINATION": "97.4649", "RA_OF_ASC_NODE": "244.3947", "ARG_OF_PERICENTER": "24.8772", "MEAN_ANOMALY": "335.3208", "EPHEMERIS_TYPE": "0", "CLASSIFICATION_TYPE": "U", "NORAD_CAT_ID": "44878", "ELEMENT_SET_NO": "999", "REV_AT_EPOCH": "1084", "BSTAR": "0.00000000000000", "MEAN_MOTION_DOT": "-0.00000066", "MEAN_MOTION_DDOT": "0.0000000000000", "SEMIMAJOR_AXIS": "6898.268", "PERIOD": "95.032", "APOAPSIS": "530.145", "PERIAPSIS": "510.122", "OBJECT_TYPE": "PAYLOAD", "RCS_SIZE": "SMALL", "COUNTRY_CODE": "ESA", "LAUNCH_DATE": "2019-12-18", "SITE": "FRGUI", "DECAY_DATE": null, "FILE": "2711092", "GP_ID": "149676014", "TLE_LINE0": "0 OPS-SAT", "TLE_LINE1": "1 44878U 19092F   20059.22832710 -.00000066 +00000-0 +00000-0 0  9996", "TLE_LINE2": "2 44878 097.4649 244.3947 0014513 024.8772 335.3208 15.15278912010847"}, {"CCSDS_OMM_VERS": "3.0", "COMMENT": "GENERATED VIA SPACE-TRACK.ORG API", "CREATION_DATE": "2020-02-29T03:32:49", "ORIGINATOR": "18 SPCS", "OBJECT_NAME": "OPS-SAT", "OBJECT_ID": "2019-092F", "CENTER_NAME": "EARTH", "REF_FRAME": "TEME", "TIME_SYSTEM": "UTC", "MEAN_ELEMENT_THEORY": "SGP4", "EPOCH": "2020-02-28T14:59:20.597280", "MEAN_MOTION": "15.15279741", "ECCENTRICITY": "0.00147650", "INCLINATION": "97.4649", "RA_OF_ASC_NODE": "244.7841", "ARG_OF_PERICENTER": "22.9495", "MEAN_ANOMALY": "337.2453", "EPHEMERIS_TYPE": "0", "CLASSIFICATION_TYPE": "U", "NORAD_CAT_ID": "44878", "ELEMENT_SET_NO": "999", "REV_AT_EPOCH": "1090", "BSTAR": "0.00000000000000", "MEAN_MOTION_DOT": "-0.00000066", "MEAN_MOTION_DDOT": "0.0000000000000", "SEMIMAJOR_AXIS": "6898.266", "PERIOD": "95.031", "APOAPSIS": "530.316", "PERIAPSIS": "509.946", "OBJECT_TYPE": "PAYLOAD", "RCS_SIZE": "SMALL", "COUNTRY_CODE": "ESA", "LAUNCH_DATE": "2019-12-18", "SITE": "FRGUI", "DECAY_DATE": null, "FILE": "2711243", "GP_ID": "149718453", "TLE_LINE0": "0 OPS-SAT", "TLE_LINE1": "1 44878U 19092F   20059.62454395 -.00000066 +00000-0 +00000-0 0  9999", "TLE_LINE2": "2 44878 097.4649 244.7841 0014765 022.9495 337.2453 15.15279741010905"}, {"CCSDS_OMM_VERS": "3.0", "COMMENT": "GENERATED VIA SPACE-TRACK.ORG API", "CREATION_DATE": "2020-02-29T14:16:13", "ORIGINATOR": "18 SPCS", "OBJECT_NAME": "OPS-SAT", "OBJECT_ID": "2019-092F", "CENTER_NAME": "EARTH", "REF_FRAME": "TEME", "TIME_SYSTEM": "UTC", "MEAN_ELEMENT_THEORY": "SGP4", "EPOCH": "2020-02-29T05:15:10.210752", "MEAN_MOTION": "15.15280450", "ECCENTRICITY": "0.00145700", "INCLINATION": "97.4648", "RA_OF_ASC_NODE": "245.3679", "ARG_OF_PERICENTER": "21.3349", "MEAN_ANOMALY": "338.8512", "EPHEMERIS_TYPE": "0", "CLASSIFICATION_TYPE": "U", "NORAD_CAT_ID": "44878", "ELEMENT_SET_NO": "999", "REV_AT_EPOCH": "1099", "BSTAR": "0.00000000000000", "MEAN_MOTION_DOT": "-0.00000066", "MEAN_MOTION_DDOT": "0.0000000000000", "SEMIMAJOR_AXIS": "6898.264", "PERIOD": "95.031", "APOAPSIS": "530.180", "PERIAPSIS": "510.078", "OBJECT_TYPE": "PAYLOAD", "RCS_SIZE": "SMALL", "COUNTRY_CODE": "ESA", "LAUNCH_DATE": "2019-12-18", "SITE": "FRGUI", "DECAY_DATE": null, "FILE": "2711418", "GP_ID": "149722534", "TLE_LINE0": "0 OPS-SAT", "TLE_LINE1": "1 44878U 19092F   20060.21886818 -.00000066  00000-0  00000+0 0  9994", "TLE_LINE2": "2 44878  97.4648 245.3679 0014570  21.3349 338.8512 15.15280450 10996"}, {"CCSDS_OMM_VERS": "3.0", "COMMENT": "GENERATED VIA SPACE-TRACK.ORG API", "CREATION_DATE": "2020-03-01T04:11:06", "ORIGINATOR": "18 SPCS", "OBJECT_NAME": "OPS-SAT", "OBJECT_ID": "2019-092F", "CENTER_NAME": "EARTH", "REF_FRAME": "TEME", "TIME_SYSTEM": "UTC", "MEAN_ELEMENT_THEORY": "SGP4", "EPOCH": "2020-02-29T14:45:43.350912", "MEAN_MOTION": "15.15281245", "ECCENTRICITY": "0.00147510", "INCLINATION": "97.4645", "RA_OF_ASC_NODE": "245.7576", "ARG_OF_PERICENTER": "19.8287", "MEAN_ANOMALY": "340.3572", "EPHEMERIS_TYPE": "0", "CLASSIFICATION_TYPE": "U", "NORAD_CAT_ID": "44878", "ELEMENT_SET_NO": "999", "REV_AT_EPOCH": "1105", "BSTAR": "0.00000000000000", "MEAN_MOTION_DOT": "-0.00000066", "MEAN_MOTION_DDOT": "0.0000000000000", "SEMIMAJOR_AXIS": "6898.261", "PERIOD": "95.031", "APOAPSIS": "530.302", "PERIAPSIS": "509.951", "OBJECT_TYPE": "PAYLOAD", "RCS_SIZE": "SMALL", "COUNTRY_CODE": "ESA", "LAUNCH_DATE": "2019-12-18", "SITE": "FRGUI", "DECAY_DATE": null, "FILE": "2711774", "GP_ID": "149770043", "TLE_LINE0": "0 OPS-SAT", "TLE_LINE1": "1 44878U 19092F   20060.61508508 -.00000066 +00000-0 +00000-0 0  9996", "TLE_LINE2": "2 44878 097.4645 245.7576 0014751 019.8287 340.3572 15.15281245011052"}]